CCSDS_OMM_VERS = 2.0
CREATION_DATE  = 
ORIGINATOR     = 

OBJECT_NAME    = CZ-6A R/B
OBJECT_ID      = 2026-051B
CENTER_NAME    = EARTH
REF_FRAME      = TEME
TIME_SYSTEM    = UTC
MEAN_ELEMENT_THEORY = SGP/SGP4

EPOCH          = 2026-03-31T12:28:10.496352
MEAN_MOTION    = 14.56376395
ECCENTRICITY   = .01869411
INCLINATION    = 142.0315
RA_OF_ASC_NODE = 321.1552
ARG_OF_PERICENTER = 208.1806
MEAN_ANOMALY   = 150.8691

EPHEMERIS_TYPE = 0
CLASSIFICATION_TYPE = U
NORAD_CAT_ID   = 68197
ELEMENT_SET_NO = 999
REV_AT_EPOCH   = 234
BSTAR          = .16714528E-3
MEAN_MOTION_DOT = .1251E-4
MEAN_MOTION_DDOT = 0

CCSDS_OMM_VERS = 2.0
CREATION_DATE  = 
ORIGINATOR     = 

OBJECT_NAME    = 2026-052A
OBJECT_ID      = 2026-052A
CENTER_NAME    = EARTH
REF_FRAME      = TEME
TIME_SYSTEM    = UTC
MEAN_ELEMENT_THEORY = SGP/SGP4

EPOCH          = 2026-03-26T14:56:36.140064
MEAN_MOTION    = 15.09879016
ECCENTRICITY   = .00129773
INCLINATION    = 97.5376
RA_OF_ASC_NODE = 161.7059
ARG_OF_PERICENTER = 225.7685
MEAN_ANOMALY   = 134.2480

EPHEMERIS_TYPE = 0
CLASSIFICATION_TYPE = U
NORAD_CAT_ID   = 68198
ELEMENT_SET_NO = 999
REV_AT_EPOCH   = 158
BSTAR          = .3152876E-4
MEAN_MOTION_DOT = .448E-5
MEAN_MOTION_DDOT = 0

CCSDS_OMM_VERS = 2.0
CREATION_DATE  = 
ORIGINATOR     = 

OBJECT_NAME    = YUXING-3 06
OBJECT_ID      = 2026-052B
CENTER_NAME    = EARTH
REF_FRAME      = TEME
TIME_SYSTEM    = UTC
MEAN_ELEMENT_THEORY = SGP/SGP4

EPOCH          = 2026-03-31T15:46:54.327936
MEAN_MOTION    = 15.10132430
ECCENTRICITY   = .0012234
INCLINATION    = 97.5372
RA_OF_ASC_NODE = 166.6620
ARG_OF_PERICENTER = 208.7924
MEAN_ANOMALY   = 151.2631

EPHEMERIS_TYPE = 0
CLASSIFICATION_TYPE = U
NORAD_CAT_ID   = 68199
ELEMENT_SET_NO = 999
REV_AT_EPOCH   = 234
BSTAR          = .39993E-3
MEAN_MOTION_DOT = .647E-4
MEAN_MOTION_DDOT = 0

CCSDS_OMM_VERS = 2.0
CREATION_DATE  = 
ORIGINATOR     = 

OBJECT_NAME    = 2026-052C
OBJECT_ID      = 2026-052C
CENTER_NAME    = EARTH
REF_FRAME      = TEME
TIME_SYSTEM    = UTC
MEAN_ELEMENT_THEORY = SGP/SGP4

EPOCH          = 2026-03-31T14:09:34.737696
MEAN_MOTION    = 15.10251299
ECCENTRICITY   = .00119375
INCLINATION    = 97.5362
RA_OF_ASC_NODE = 166.5993
ARG_OF_PERICENTER = 211.8427
MEAN_ANOMALY   = 148.2082

EPHEMERIS_TYPE = 0
CLASSIFICATION_TYPE = U
NORAD_CAT_ID   = 68200
ELEMENT_SET_NO = 999
REV_AT_EPOCH   = 232
BSTAR          = .36979115E-3
MEAN_MOTION_DOT = .5996E-4
MEAN_MOTION_DDOT = 0

CCSDS_OMM_VERS = 2.0
CREATION_DATE  = 
ORIGINATOR     = 

OBJECT_NAME    = 2026-052D
OBJECT_ID      = 2026-052D
CENTER_NAME    = EARTH
REF_FRAME      = TEME
TIME_SYSTEM    = UTC
MEAN_ELEMENT_THEORY = SGP/SGP4

EPOCH          = 2026-03-31T14:06:58.533408
MEAN_MOTION    = 15.10473410
ECCENTRICITY   = .0011161
INCLINATION    = 97.5361
RA_OF_ASC_NODE = 166.5981
ARG_OF_PERICENTER = 207.7814
MEAN_ANOMALY   = 152.2821

EPHEMERIS_TYPE = 0
CLASSIFICATION_TYPE = U
NORAD_CAT_ID   = 68201
ELEMENT_SET_NO = 999
REV_AT_EPOCH   = 233
BSTAR          = .52471128E-3
MEAN_MOTION_DOT = .8589E-4
MEAN_MOTION_DDOT = 0

CCSDS_OMM_VERS = 2.0
CREATION_DATE  = 
ORIGINATOR     = 

OBJECT_NAME    = 2026-052E
OBJECT_ID      = 2026-052E
CENTER_NAME    = EARTH
REF_FRAME      = TEME
TIME_SYSTEM    = UTC
MEAN_ELEMENT_THEORY = SGP/SGP4

EPOCH          = 2026-03-31T14:06:56.809728
MEAN_MOTION    = 15.10473265
ECCENTRICITY   = .00109723
INCLINATION    = 97.5368
RA_OF_ASC_NODE = 166.6012
ARG_OF_PERICENTER = 211.9824
MEAN_ANOMALY   = 148.0741

EPHEMERIS_TYPE = 0
CLASSIFICATION_TYPE = U
NORAD_CAT_ID   = 68202
ELEMENT_SET_NO = 999
REV_AT_EPOCH   = 233
BSTAR          = .5357815E-3
MEAN_MOTION_DOT = .8772E-4
MEAN_MOTION_DDOT = 0

CCSDS_OMM_VERS = 2.0
CREATION_DATE  = 
ORIGINATOR     = 

OBJECT_NAME    = 2026-052F
OBJECT_ID      = 2026-052F
CENTER_NAME    = EARTH
REF_FRAME      = TEME
TIME_SYSTEM    = UTC
MEAN_ELEMENT_THEORY = SGP/SGP4

EPOCH          = 2026-03-31T14:03:14.423904
MEAN_MOTION    = 15.10729154
ECCENTRICITY   = .00102981
INCLINATION    = 97.5361
RA_OF_ASC_NODE = 166.6085
ARG_OF_PERICENTER = 204.0906
MEAN_ANOMALY   = 155.9843

EPHEMERIS_TYPE = 0
CLASSIFICATION_TYPE = U
NORAD_CAT_ID   = 68203
ELEMENT_SET_NO = 999
REV_AT_EPOCH   = 233
BSTAR          = .53650396E-3
MEAN_MOTION_DOT = .8845E-4
MEAN_MOTION_DDOT = 0

CCSDS_OMM_VERS = 2.0
CREATION_DATE  = 
ORIGINATOR     = 

OBJECT_NAME    = 2026-052G
OBJECT_ID      = 2026-052G
CENTER_NAME    = EARTH
REF_FRAME      = TEME
TIME_SYSTEM    = UTC
MEAN_ELEMENT_THEORY = SGP/SGP4

EPOCH          = 2026-03-31T14:02:31.661088
MEAN_MOTION    = 15.10775561
ECCENTRICITY   = .00098812
INCLINATION    = 97.5373
RA_OF_ASC_NODE = 166.6037
ARG_OF_PERICENTER = 207.1022
MEAN_ANOMALY   = 152.9693

EPHEMERIS_TYPE = 0
CLASSIFICATION_TYPE = U
NORAD_CAT_ID   = 68204
ELEMENT_SET_NO = 999
REV_AT_EPOCH   = 233
BSTAR          = .51909272E-3
MEAN_MOTION_DOT = .8565E-4
MEAN_MOTION_DDOT = 0

CCSDS_OMM_VERS = 2.0
CREATION_DATE  = 
ORIGINATOR     = 

OBJECT_NAME    = KZ-11 R/B
OBJECT_ID      = 2026-052H
CENTER_NAME    = EARTH
REF_FRAME      = TEME
TIME_SYSTEM    = UTC
MEAN_ELEMENT_THEORY = SGP/SGP4

EPOCH          = 2026-03-31T15:10:11.228160
MEAN_MOTION    = 14.67410216
ECCENTRICITY   = .05451276
INCLINATION    = 97.3415
RA_OF_ASC_NODE = 165.6891
ARG_OF_PERICENTER = 322.8807
MEAN_ANOMALY   = 33.5833

EPHEMERIS_TYPE = 0
CLASSIFICATION_TYPE = U
NORAD_CAT_ID   = 68205
ELEMENT_SET_NO = 999
REV_AT_EPOCH   = 227
BSTAR          = .40669204E-3
MEAN_MOTION_DOT = .27088E-3
MEAN_MOTION_DDOT = .1966051E-5

CCSDS_OMM_VERS = 2.0
CREATION_DATE  = 
ORIGINATOR     = 

OBJECT_NAME    = 2026-052J
OBJECT_ID      = 2026-052J
CENTER_NAME    = EARTH
REF_FRAME      = TEME
TIME_SYSTEM    = UTC
MEAN_ELEMENT_THEORY = SGP/SGP4

EPOCH          = 2026-03-31T15:02:49.370784
MEAN_MOTION    = 14.68551044
ECCENTRICITY   = .05410022
INCLINATION    = 97.3415
RA_OF_ASC_NODE = 165.6950
ARG_OF_PERICENTER = 322.9144
MEAN_ANOMALY   = 33.5792

EPHEMERIS_TYPE = 0
CLASSIFICATION_TYPE = U
NORAD_CAT_ID   = 68206
ELEMENT_SET_NO = 999
REV_AT_EPOCH   = 227
BSTAR          = .12071138E-2
MEAN_MOTION_DOT = .82683E-3
MEAN_MOTION_DDOT = .2915216E-5

CCSDS_OMM_VERS = 2.0
CREATION_DATE  = 
ORIGINATOR     = 

OBJECT_NAME    = STARLINK-36986
OBJECT_ID      = 2026-053A
CENTER_NAME    = EARTH
REF_FRAME      = TEME
TIME_SYSTEM    = UTC
MEAN_ELEMENT_THEORY = SGP/SGP4

EPOCH          = 2026-03-31T13:44:22.632288
MEAN_MOTION    = 15.80881650
ECCENTRICITY   = .00010105
INCLINATION    = 97.2845
RA_OF_ASC_NODE = 325.9148
ARG_OF_PERICENTER = 94.2723
MEAN_ANOMALY   = 265.8660

EPHEMERIS_TYPE = 0
CLASSIFICATION_TYPE = U
NORAD_CAT_ID   = 68207
ELEMENT_SET_NO = 999
REV_AT_EPOCH   = 351
BSTAR          = .1374472E-2
MEAN_MOTION_DOT = .272338E-2
MEAN_MOTION_DDOT = 0

CCSDS_OMM_VERS = 2.0
CREATION_DATE  = 
ORIGINATOR     = 

OBJECT_NAME    = STARLINK-37009
OBJECT_ID      = 2026-053B
CENTER_NAME    = EARTH
REF_FRAME      = TEME
TIME_SYSTEM    = UTC
MEAN_ELEMENT_THEORY = SGP/SGP4

EPOCH          = 2026-03-31T12:12:08.435808
MEAN_MOTION    = 15.80860818
ECCENTRICITY   = .00015568
INCLINATION    = 97.2846
RA_OF_ASC_NODE = 325.8481
ARG_OF_PERICENTER = 54.9950
MEAN_ANOMALY   = 305.1464

EPHEMERIS_TYPE = 0
CLASSIFICATION_TYPE = U
NORAD_CAT_ID   = 68208
ELEMENT_SET_NO = 999
REV_AT_EPOCH   = 350
BSTAR          = .12377876E-2
MEAN_MOTION_DOT = .24421E-2
MEAN_MOTION_DDOT = 0

