CZ-6A R/B               
1 68197U 26051B   26090.51956593  .00001251  00000+0  16715-3 0  9996
2 68197 142.0315 321.1552 0186941 208.1806 150.8691 14.56376395  2340
2026-052A               
1 68198U 26052A   26085.62264051  .00000448  00000+0  31529-4 0  9993
2 68198  97.5376 161.7059 0012977 225.7685 134.2480 15.09879016  1583
YUXING-3 06             
1 68199U 26052B   26090.65757324  .00006470  00000+0  39993-3 0  9996
2 68199  97.5372 166.6620 0012234 208.7924 151.2631 15.10132430  2347
2026-052C               
1 68200U 26052C   26090.58998539  .00005996  00000+0  36979-3 0  9999
2 68200  97.5362 166.5993 0011937 211.8427 148.2082 15.10251299  2322
2026-052D               
1 68201U 26052D   26090.58817747  .00008589  00000+0  52471-3 0  9997
2 68201  97.5361 166.5981 0011161 207.7814 152.2821 15.10473410  2330
2026-052E               
1 68202U 26052E   26090.58815752  .00008772  00000+0  53578-3 0  9995
2 68202  97.5368 166.6012 0010972 211.9824 148.0741 15.10473265  2333
2026-052F               
1 68203U 26052F   26090.58558361  .00008845  00000+0  53650-3 0  9998
2 68203  97.5361 166.6085 0010298 204.0906 155.9843 15.10729154  2333
2026-052G               
1 68204U 26052G   26090.58508867  .00008565  00000+0  51909-3 0  9999
2 68204  97.5373 166.6037 0009881 207.1022 152.9693 15.10775561  2336
KZ-11 R/B               
1 68205U 26052H   26090.63207440  .00027088  19661-5  40669-3 0  9990
2 68205  97.3415 165.6891 0545127 322.8807  33.5833 14.67410216  2270
2026-052J               
1 68206U 26052J   26090.62696031  .00082683  29152-5  12071-2 0  9991
2 68206  97.3415 165.6950 0541002 322.9144  33.5792 14.68551044  2270
STARLINK-36986          
1 68207U 26053A   26090.57248417  .00272338  00000+0  13745-2 0  9990
2 68207  97.2845 325.9148 0001010  94.2723 265.8660 15.80881650  3515
STARLINK-37009          
1 68208U 26053B   26090.50843097  .00244210  00000+0  12378-2 0  9998
2 68208  97.2846 325.8481 0001556  54.9950 305.1464 15.80860818  3508
